QIANFAN-81              
1 63167U 25046J   26202.19829096  .00000114  00000+0  15835-3 0  9996
2 63167  88.9722 297.0022 0014737 195.6150 164.4548 13.51025480 77254
QIANFAN-82              
1 63168U 25046K   26202.23126442  .00000121  00000+0  16932-3 0  9994
2 63168  88.9722 297.0429 0012341 200.8959 159.1690 13.51020039 77244
QIANFAN-83              
1 63169U 25046L   26202.23905079  .00000142  00000+0  16846-3 0  9993
2 63169  88.9723 296.3842 0014754 175.2164 184.9137 13.62052808 77614
QIANFAN-84              
1 63170U 25046M   26202.26017905  .00000113  00000+0  15547-3 0  9995
2 63170  88.9722 297.1726 0015525 199.2582 160.7985 13.51046079 77177
QIANFAN-85              
1 63171U 25046N   26201.81157445  .00000123  00000+0  17231-3 0  9993
2 63171  88.9722 297.0892 0012845 201.3239 158.7378 13.51017557 77180
QIANFAN-86              
1 63172U 25046P   26202.26416954  .00000130  00000+0  18244-3 0  9990
2 63172  88.9723 296.9096 0010594 202.2807 157.7885 13.51025293 77320
QIANFAN-87              
1 63173U 25046Q   26202.23550201  .00000113  00000+0  15673-3 0  9996
2 63173  88.9720 297.0160 0011328 197.9746 162.1006 13.51010829 77256
QIANFAN-88              
1 63174U 25046R   26202.25192264  .00000122  00000+0  17073-3 0  9996
2 63174  88.9722 296.9742 0011408 206.9313 153.1248 13.51018428 77287
QIANFAN-89              
1 63175U 25046S   26202.28881845  .00000111  00000+0  15362-3 0  9997
2 63175  88.9722 297.1593 0016343 200.0365 160.0147 13.51025596 77188
QIANFAN-90              
1 63176U 25046T   26202.24358656  .00000119  00000+0  16591-3 0  9996
2 63176  88.9723 297.1370 0013342 196.9336 163.1372 13.51018085 77190
QIANFAN-91              
1 66033U 25233A   26202.27605824  .00000026  00000+0  22250-4 0  9991
2 66033  88.9981  39.7398 0002142  95.1733 264.9663 13.51015143 37784
QIANFAN-92              
1 66034U 25233B   26202.06206875  .00000042  00000+0  46513-4 0  9998
2 66034  88.9964  39.7276 0001983  89.8461 270.2917 13.51013668 37750
QIANFAN-93              
1 66035U 25233C   26202.07027589  .00000024  00000+0  17999-4 0  9999
2 66035  88.9991  39.7878 0002063  93.8408 266.2980 13.51016975 37754
QIANFAN-94              
1 66036U 25233D   26202.28015218  .00000046  00000+0  52762-4 0  9990
2 66036  88.9988  39.6687 0002119  89.9231 270.2163 13.51015999 37832
QIANFAN-95              
1 66037U 25233E   26202.06620315  .00000040  00000+0  43740-4 0  9997
2 66037  88.9985  39.2330 0002244  93.3005 266.8403 13.51016993 38056
QIANFAN-96              
1 66038U 25233F   26202.09090346  .00000025  00000+0  19765-4 0  9999
2 66038  88.9983  39.7732 0002166  96.1958 263.9439 13.51015713 37759
