{"fetched_at":"2026-07-21T17:53:08.726Z","source":"https://celestrak.org/NORAD/elements/gp.php?GROUP=qianfan&FORMAT=JSON","constellation":"qianfan","records":[{"OBJECT_NAME":"QIANFAN-81","OBJECT_ID":"2025-046J","EPOCH":"2026-07-21T04:45:32.338944","CLASSIFICATION_TYPE":"U","MEAN_MOTION":13.5102548,"ECCENTRICITY":0.00147373,"INCLINATION":88.9722,"RA_OF_ASC_NODE":297.0022,"ARG_OF_PERICENTER":195.615,"MEAN_ANOMALY":164.4548,"EPHEMERIS_TYPE":0,"NORAD_CAT_ID":63167,"ELEMENT_SET_NO":999,"REV_AT_EPOCH":7725,"BSTAR":0.00015835062,"MEAN_MOTION_DOT":0.00000114,"MEAN_MOTION_DDOT":0},{"OBJECT_NAME":"QIANFAN-82","OBJECT_ID":"2025-046K","EPOCH":"2026-07-21T05:33:01.245888","CLASSIFICATION_TYPE":"U","MEAN_MOTION":13.51020039,"ECCENTRICITY":0.00123412,"INCLINATION":88.9722,"RA_OF_ASC_NODE":297.0429,"ARG_OF_PERICENTER":200.8959,"MEAN_ANOMALY":159.169,"EPHEMERIS_TYPE":0,"NORAD_CAT_ID":63168,"ELEMENT_SET_NO":999,"REV_AT_EPOCH":7724,"BSTAR":0.00016931883,"MEAN_MOTION_DOT":0.00000121,"MEAN_MOTION_DDOT":0},{"OBJECT_NAME":"QIANFAN-83","OBJECT_ID":"2025-046L","EPOCH":"2026-07-21T05:44:13.988256","CLASSIFICATION_TYPE":"U","MEAN_MOTION":13.62052808,"ECCENTRICITY":0.00147542,"INCLINATION":88.9723,"RA_OF_ASC_NODE":296.3842,"ARG_OF_PERICENTER":175.2164,"MEAN_ANOMALY":184.9137,"EPHEMERIS_TYPE":0,"NORAD_CAT_ID":63169,"ELEMENT_SET_NO":999,"REV_AT_EPOCH":7761,"BSTAR":0.00016846397,"MEAN_MOTION_DOT":0.00000142,"MEAN_MOTION_DDOT":0},{"OBJECT_NAME":"QIANFAN-84","OBJECT_ID":"2025-046M","EPOCH":"2026-07-21T06:14:39.469920","CLASSIFICATION_TYPE":"U","MEAN_MOTION":13.51046079,"ECCENTRICITY":0.00155256,"INCLINATION":88.9722,"RA_OF_ASC_NODE":297.1726,"ARG_OF_PERICENTER":199.2582,"MEAN_ANOMALY":160.7985,"EPHEMERIS_TYPE":0,"NORAD_CAT_ID":63170,"ELEMENT_SET_NO":999,"REV_AT_EPOCH":7717,"BSTAR":0.00015546946,"MEAN_MOTION_DOT":0.00000113,"MEAN_MOTION_DDOT":0},{"OBJECT_NAME":"QIANFAN-85","OBJECT_ID":"2025-046N","EPOCH":"2026-07-20T19:28:40.032480","CLASSIFICATION_TYPE":"U","MEAN_MOTION":13.51017557,"ECCENTRICITY":0.00128455,"INCLINATION":88.9722,"RA_OF_ASC_NODE":297.0892,"ARG_OF_PERICENTER":201.3239,"MEAN_ANOMALY":158.7378,"EPHEMERIS_TYPE":0,"NORAD_CAT_ID":63171,"ELEMENT_SET_NO":999,"REV_AT_EPOCH":7718,"BSTAR":0.00017230602,"MEAN_MOTION_DOT":0.00000123,"MEAN_MOTION_DDOT":0},{"OBJECT_NAME":"QIANFAN-86","OBJECT_ID":"2025-046P","EPOCH":"2026-07-21T06:20:24.248256","CLASSIFICATION_TYPE":"U","MEAN_MOTION":13.51025293,"ECCENTRICITY":0.00105944,"INCLINATION":88.9723,"RA_OF_ASC_NODE":296.9096,"ARG_OF_PERICENTER":202.2807,"MEAN_ANOMALY":157.7885,"EPHEMERIS_TYPE":0,"NORAD_CAT_ID":63172,"ELEMENT_SET_NO":999,"REV_AT_EPOCH":7732,"BSTAR":0.00018243747,"MEAN_MOTION_DOT":0.0000013,"MEAN_MOTION_DDOT":0},{"OBJECT_NAME":"QIANFAN-87","OBJECT_ID":"2025-046Q","EPOCH":"2026-07-21T05:39:07.373664","CLASSIFICATION_TYPE":"U","MEAN_MOTION":13.51010829,"ECCENTRICITY":0.00113283,"INCLINATION":88.972,"RA_OF_ASC_NODE":297.016,"ARG_OF_PERICENTER":197.9746,"MEAN_ANOMALY":162.1006,"EPHEMERIS_TYPE":0,"NORAD_CAT_ID":63173,"ELEMENT_SET_NO":999,"REV_AT_EPOCH":7725,"BSTAR":0.00015672734,"MEAN_MOTION_DOT":0.00000113,"MEAN_MOTION_DDOT":0},{"OBJECT_NAME":"QIANFAN-88","OBJECT_ID":"2025-046R","EPOCH":"2026-07-21T06:02:46.116096","CLASSIFICATION_TYPE":"U","MEAN_MOTION":13.51018428,"ECCENTRICITY":0.00114086,"INCLINATION":88.9722,"RA_OF_ASC_NODE":296.9742,"ARG_OF_PERICENTER":206.9313,"MEAN_ANOMALY":153.1248,"EPHEMERIS_TYPE":0,"NORAD_CAT_ID":63174,"ELEMENT_SET_NO":999,"REV_AT_EPOCH":7728,"BSTAR":0.00017072829,"MEAN_MOTION_DOT":0.00000122,"MEAN_MOTION_DDOT":0},{"OBJECT_NAME":"QIANFAN-89","OBJECT_ID":"2025-046S","EPOCH":"2026-07-21T06:55:53.914080","CLASSIFICATION_TYPE":"U","MEAN_MOTION":13.51025596,"ECCENTRICITY":0.00163434,"INCLINATION":88.9722,"RA_OF_ASC_NODE":297.1593,"ARG_OF_PERICENTER":200.0365,"MEAN_ANOMALY":160.0147,"EPHEMERIS_TYPE":0,"NORAD_CAT_ID":63175,"ELEMENT_SET_NO":999,"REV_AT_EPOCH":7718,"BSTAR":0.00015361645,"MEAN_MOTION_DOT":0.00000111,"MEAN_MOTION_DDOT":0},{"OBJECT_NAME":"QIANFAN-90","OBJECT_ID":"2025-046T","EPOCH":"2026-07-21T05:50:45.878784","CLASSIFICATION_TYPE":"U","MEAN_MOTION":13.51018085,"ECCENTRICITY":0.00133428,"INCLINATION":88.9723,"RA_OF_ASC_NODE":297.137,"ARG_OF_PERICENTER":196.9336,"MEAN_ANOMALY":163.1372,"EPHEMERIS_TYPE":0,"NORAD_CAT_ID":63176,"ELEMENT_SET_NO":999,"REV_AT_EPOCH":7719,"BSTAR":0.0001659059,"MEAN_MOTION_DOT":0.00000119,"MEAN_MOTION_DDOT":0},{"OBJECT_NAME":"QIANFAN-91","OBJECT_ID":"2025-233A","EPOCH":"2026-07-21T06:37:31.431936","CLASSIFICATION_TYPE":"U","MEAN_MOTION":13.51015143,"ECCENTRICITY":0.0002142,"INCLINATION":88.9981,"RA_OF_ASC_NODE":39.7398,"ARG_OF_PERICENTER":95.1733,"MEAN_ANOMALY":264.9663,"EPHEMERIS_TYPE":0,"NORAD_CAT_ID":66033,"ELEMENT_SET_NO":999,"REV_AT_EPOCH":3778,"BSTAR":0.000022249766,"MEAN_MOTION_DOT":2.6e-7,"MEAN_MOTION_DDOT":0},{"OBJECT_NAME":"QIANFAN-92","OBJECT_ID":"2025-233B","EPOCH":"2026-07-21T01:29:22.740000","CLASSIFICATION_TYPE":"U","MEAN_MOTION":13.51013668,"ECCENTRICITY":0.00019832,"INCLINATION":88.9964,"RA_OF_ASC_NODE":39.7276,"ARG_OF_PERICENTER":89.8461,"MEAN_ANOMALY":270.2917,"EPHEMERIS_TYPE":0,"NORAD_CAT_ID":66034,"ELEMENT_SET_NO":999,"REV_AT_EPOCH":3775,"BSTAR":0.000046512628,"MEAN_MOTION_DOT":4.2e-7,"MEAN_MOTION_DDOT":0},{"OBJECT_NAME":"QIANFAN-93","OBJECT_ID":"2025-233C","EPOCH":"2026-07-21T01:41:11.836896","CLASSIFICATION_TYPE":"U","MEAN_MOTION":13.51016975,"ECCENTRICITY":0.00020631,"INCLINATION":88.9991,"RA_OF_ASC_NODE":39.7878,"ARG_OF_PERICENTER":93.8408,"MEAN_ANOMALY":266.298,"EPHEMERIS_TYPE":0,"NORAD_CAT_ID":66035,"ELEMENT_SET_NO":999,"REV_AT_EPOCH":3775,"BSTAR":0.000017999241,"MEAN_MOTION_DOT":2.4e-7,"MEAN_MOTION_DDOT":0},{"OBJECT_NAME":"QIANFAN-94","OBJECT_ID":"2025-233D","EPOCH":"2026-07-21T06:43:25.148352","CLASSIFICATION_TYPE":"U","MEAN_MOTION":13.51015999,"ECCENTRICITY":0.00021199,"INCLINATION":88.9988,"RA_OF_ASC_NODE":39.6687,"ARG_OF_PERICENTER":89.9231,"MEAN_ANOMALY":270.2163,"EPHEMERIS_TYPE":0,"NORAD_CAT_ID":66036,"ELEMENT_SET_NO":999,"REV_AT_EPOCH":3783,"BSTAR":0.000052761783,"MEAN_MOTION_DOT":4.6e-7,"MEAN_MOTION_DDOT":0},{"OBJECT_NAME":"QIANFAN-95","OBJECT_ID":"2025-233E","EPOCH":"2026-07-21T01:35:19.952160","CLASSIFICATION_TYPE":"U","MEAN_MOTION":13.51016993,"ECCENTRICITY":0.00022446,"INCLINATION":88.9985,"RA_OF_ASC_NODE":39.233,"ARG_OF_PERICENTER":93.3005,"MEAN_ANOMALY":266.8403,"EPHEMERIS_TYPE":0,"NORAD_CAT_ID":66037,"ELEMENT_SET_NO":999,"REV_AT_EPOCH":3805,"BSTAR":0.000043739983,"MEAN_MOTION_DOT":4e-7,"MEAN_MOTION_DDOT":0},{"OBJECT_NAME":"QIANFAN-96","OBJECT_ID":"2025-233F","EPOCH":"2026-07-21T02:10:54.058944","CLASSIFICATION_TYPE":"U","MEAN_MOTION":13.51015713,"ECCENTRICITY":0.00021662,"INCLINATION":88.9983,"RA_OF_ASC_NODE":39.7732,"ARG_OF_PERICENTER":96.1958,"MEAN_ANOMALY":263.9439,"EPHEMERIS_TYPE":0,"NORAD_CAT_ID":66038,"ELEMENT_SET_NO":999,"REV_AT_EPOCH":3775,"BSTAR":0.000019764945,"MEAN_MOTION_DOT":2.5e-7,"MEAN_MOTION_DDOT":0}]}
